{
  "norad_id": 28737,
  "name": "SJ-7",
  "history": [
    {
      "epoch": "2026-04-14T14:34:17.556960Z",
      "apogee_km": 513.9388393085192,
      "perigee_km": 494.0274892492289,
      "latitude_deg": -8.433259499457753e-06,
      "longitude_deg": 71.67530236555633,
      "height_km": 510.4290843584688,
      "semi_major_axis_km": 6882.120164278874,
      "eccentricity": 0.0014466,
      "inclination_deg": 97.7355,
      "raan_deg": 133.0296,
      "arg_perigee_deg": 250.2986,
      "mean_anomaly_deg": 109.6688,
      "mean_motion_rev_day": 15.20615402
    },
    {
      "epoch": "2026-04-15T14:15:40.093056Z",
      "apogee_km": 513.9462069944793,
      "perigee_km": 493.9729862517597,
      "latitude_deg": 7.645461217162587e-05,
      "longitude_deg": 76.37149525195134,
      "height_km": 511.0227477409456,
      "semi_major_axis_km": 6882.09659662312,
      "eccentricity": 0.0014511,
      "inclination_deg": 97.7352,
      "raan_deg": 134.0426,
      "arg_perigee_deg": 246.556,
      "mean_anomaly_deg": 113.415,
      "mean_motion_rev_day": 15.20623213
    },
    {
      "epoch": "2026-04-16T15:31:47.770752Z",
      "apogee_km": 513.9507773926534,
      "perigee_km": 493.9170689353223,
      "latitude_deg": 8.669833850984848e-05,
      "longitude_deg": 57.38205279018359,
      "height_km": 511.64561561968617,
      "semi_major_axis_km": 6882.070923163988,
      "eccentricity": 0.0014555,
      "inclination_deg": 97.7346,
      "raan_deg": 135.1229,
      "arg_perigee_deg": 242.5247,
      "mean_anomaly_deg": 117.4509,
      "mean_motion_rev_day": 15.20631722
    },
    {
      "epoch": "2026-04-17T19:57:25.901856Z",
      "apogee_km": 513.9659444858162,
      "perigee_km": 493.8403815147449,
      "latitude_deg": 4.048859361779871e-05,
      "longitude_deg": -8.978684966518802,
      "height_km": 512.3312868593708,
      "semi_major_axis_km": 6882.04016300028,
      "eccentricity": 0.00146218,
      "inclination_deg": 97.7343,
      "raan_deg": 136.3385,
      "arg_perigee_deg": 237.9658,
      "mean_anomaly_deg": 122.0157,
      "mean_motion_rev_day": 15.20641917
    },
    {
      "epoch": "2026-04-18T19:38:47.012352Z",
      "apogee_km": 513.9783259513742,
      "perigee_km": 493.76036770566134,
      "latitude_deg": -3.8874914332900985e-05,
      "longitude_deg": -4.27651522482397,
      "height_km": 512.8693568833056,
      "semi_major_axis_km": 6882.006346828517,
      "eccentricity": 0.0014689,
      "inclination_deg": 97.7341,
      "raan_deg": 137.3515,
      "arg_perigee_deg": 234.2288,
      "mean_anomaly_deg": 125.7581,
      "mean_motion_rev_day": 15.20653125
    },
    {
      "epoch": "2026-04-19T19:20:07.447200Z",
      "apogee_km": 513.9927574994281,
      "perigee_km": 493.6771762532089,
      "latitude_deg": 1.806877562628057e-05,
      "longitude_deg": 0.42845781150247586,
      "height_km": 513.3850766445155,
      "semi_major_axis_km": 6881.971966876318,
      "eccentricity": 0.001476,
      "inclination_deg": 97.734,
      "raan_deg": 138.3645,
      "arg_perigee_deg": 230.515,
      "mean_anomaly_deg": 129.478,
      "mean_motion_rev_day": 15.2066452
    },
    {
      "epoch": "2026-04-20T07:58:10.081632Z",
      "apogee_km": 513.998501712118,
      "perigee_km": 493.6485444453747,
      "latitude_deg": -6.43019496788506e-05,
      "longitude_deg": 170.93892854022374,
      "height_km": 513.6587299552442,
      "semi_major_axis_km": 6881.9605230787465,
      "eccentricity": 0.0014785,
      "inclination_deg": 97.7338,
      "raan_deg": 138.9048,
      "arg_perigee_deg": 228.4853,
      "mean_anomaly_deg": 131.5113,
      "mean_motion_rev_day": 15.20668313
    },
    {
      "epoch": "2026-04-21T15:33:15.789888Z",
      "apogee_km": 514.0163118429155,
      "perigee_km": 493.52336965253744,
      "latitude_deg": -1.7007946781118862e-05,
      "longitude_deg": 57.21868804915092,
      "height_km": 514.2832508170447,
      "semi_major_axis_km": 6881.906840747726,
      "eccentricity": 0.0014889,
      "inclination_deg": 97.7339,
      "raan_deg": 140.2555,
      "arg_perigee_deg": 223.5843,
      "mean_anomaly_deg": 136.4216,
      "mean_motion_rev_day": 15.20686106
    },
    {
      "epoch": "2026-04-22T01:01:47.277984Z",
      "apogee_km": 514.0227590096265,
      "perigee_km": 493.4841698319897,
      "latitude_deg": 3.193247558380043e-05,
      "longitude_deg": -84.89646138566015,
      "height_km": 514.4621506314762,
      "semi_major_axis_km": 6881.890464420808,
      "eccentricity": 0.00149222,
      "inclination_deg": 97.734,
      "raan_deg": 140.6607,
      "arg_perigee_deg": 222.1181,
      "mean_anomaly_deg": 137.8908,
      "mean_motion_rev_day": 15.20691534
    },
    {
      "epoch": "2026-04-23T02:17:50.780832Z",
      "apogee_km": 514.0537175325198,
      "perigee_km": 493.3829639197929,
      "latitude_deg": 3.1826183891789074e-05,
      "longitude_deg": -103.86816415553776,
      "height_km": 514.9285470318074,
      "semi_major_axis_km": 6881.855340726156,
      "eccentricity": 0.00150183,
      "inclination_deg": 97.7342,
      "raan_deg": 141.7413,
      "arg_perigee_deg": 218.2289,
      "mean_anomaly_deg": 141.7882,
      "mean_motion_rev_day": 15.20703176
    },
    {
      "epoch": "2026-04-24T14:37:09.455808Z",
      "apogee_km": 514.0940596451328,
      "perigee_km": 493.2325701705222,
      "latitude_deg": 5.038600603486662e-05,
      "longitude_deg": 71.36533323636074,
      "height_km": 515.531952848394,
      "semi_major_axis_km": 6881.800314907828,
      "eccentricity": 0.0015157,
      "inclination_deg": 97.734,
      "raan_deg": 143.2943,
      "arg_perigee_deg": 212.7012,
      "mean_anomaly_deg": 147.3286,
      "mean_motion_rev_day": 15.20721415
    },
    {
      "epoch": "2026-04-25T19:02:41.053344Z",
      "apogee_km": 514.1145360691089,
      "perigee_km": 493.0963183479289,
      "latitude_deg": -2.197664864028612e-05,
      "longitude_deg": 5.031794717728969,
      "height_km": 515.9390246179881,
      "semi_major_axis_km": 6881.742427208519,
      "eccentricity": 0.0015271,
      "inclination_deg": 97.7338,
      "raan_deg": 144.5098,
      "arg_perigee_deg": 208.4189,
      "mean_anomaly_deg": 151.6214,
      "mean_motion_rev_day": 15.20740603
    },
    {
      "epoch": "2026-04-26T15:34:26.374368Z",
      "apogee_km": 514.1306082571655,
      "perigee_km": 492.9798648020369,
      "latitude_deg": -2.5824116051467835e-05,
      "longitude_deg": 57.1275514069093,
      "height_km": 516.2002137334566,
      "semi_major_axis_km": 6881.692236529601,
      "eccentricity": 0.00153674,
      "inclination_deg": 97.7337,
      "raan_deg": 145.3875,
      "arg_perigee_deg": 205.3847,
      "mean_anomaly_deg": 154.6634,
      "mean_motion_rev_day": 15.2075724
    },
    {
      "epoch": "2026-04-27T18:25:10.761888Z",
      "apogee_km": 514.1560771225877,
      "perigee_km": 492.84639615900596,
      "latitude_deg": 1.8176230679261344e-05,
      "longitude_deg": 14.487886078609778,
      "height_km": 516.5065392966969,
      "semi_major_axis_km": 6881.638236640796,
      "eccentricity": 0.0015483,
      "inclination_deg": 97.7334,
      "raan_deg": 146.5353,
      "arg_perigee_deg": 201.4755,
      "mean_anomaly_deg": 158.5832,
      "mean_motion_rev_day": 15.2077514
    },
    {
      "epoch": "2026-04-28T19:41:09.089376Z",
      "apogee_km": 514.1911597409853,
      "perigee_km": 492.7095965813169,
      "latitude_deg": -2.1254818423859875e-05,
      "longitude_deg": -4.462585072247414,
      "height_km": 516.7731283485998,
      "semi_major_axis_km": 6881.587378161151,
      "eccentricity": 0.0015608,
      "inclination_deg": 97.7329,
      "raan_deg": 147.6155,
      "arg_perigee_deg": 197.6853,
      "mean_anomaly_deg": 162.384,
      "mean_motion_rev_day": 15.20791999
    },
    {
      "epoch": "2026-04-29T19:22:21.631584Z",
      "apogee_km": 514.1957448494331,
      "perigee_km": 492.6069826946077,
      "latitude_deg": 6.578279520586959e-05,
      "longitude_deg": 0.2754612882741018,
      "height_km": 516.9556214582823,
      "semi_major_axis_km": 6881.538363772021,
      "eccentricity": 0.0015686,
      "inclination_deg": 97.7324,
      "raan_deg": 148.6286,
      "arg_perigee_deg": 194.182,
      "mean_anomaly_deg": 165.8977,
      "mean_motion_rev_day": 15.20808247
    },
    {
      "epoch": "2026-04-30T08:00:19.987488Z",
      "apogee_km": 514.2044004701856,
      "perigee_km": 492.55404938396896,
      "latitude_deg": 3.6007051052206465e-05,
      "longitude_deg": 170.80360179373193,
      "height_km": 517.0441154783067,
      "semi_major_axis_km": 6881.516224927077,
      "eccentricity": 0.00157308,
      "inclination_deg": 97.7322,
      "raan_deg": 149.1687,
      "arg_perigee_deg": 192.3055,
      "mean_anomaly_deg": 167.7798,
      "mean_motion_rev_day": 15.20815586
    }
  ]
}